#aV2007  3  1  0  0   .00000000      96 DD+AD WGS84 FIT  NGA
## 1416 345600.00000000   900.00000000 54160  .0000000000000
+   30     1  2  3  4  5  6  7  8  9 10 11 12 13 14 16 17 18
+         19 20 21 22 23 24 25 26 27 28 29 30 31  0  0  0  0
+          0  0  0  0  0  0  0  0  0  0  0  0  0  0  0  0  0
+          0  0  0  0  0  0  0  0  0  0  0  0  0  0  0  0  0
+          0  0  0  0  0  0  0  0  0  0  0  0  0  0  0  0  0
++         0  0  0  0  0  0  0  0  0  0  0  0  0  0  0  0  0
++         0  0  0  0  0  0  0  0  0  0  0  0  0  0  0  0  0
++         0  0  0  0  0  0  0  0  0  0  0  0  0  0  0  0  0
++         0  0  0  0  0  0  0  0  0  0  0  0  0  0  0  0  0
++         0  0  0  0  0  0  0  0  0  0  0  0  0  0  0  0  0
%c cc cc ccc ccc cccc cccc cccc cccc ccccc ccccc ccccc ccccc
%c cc cc ccc ccc cccc cccc cccc cccc ccccc ccccc ccccc ccccc
%f  0.0000000  0.000000000  0.00000000000  0.000000000000000
%f  0.0000000  0.000000000  0.00000000000  0.000000000000000
%i    0    0    0    0      0      0      0      0         0
%i    0    0    0    0      0      0      0      0         0
/*      NGA, ST. LOUIS,MO.                                  
/*   EPHEMERIS COMPUTED FROM  3 DAYS OF DATA                
/* CCCCCCCCCCCCCCCCCCCCCCCCCCCCCCCCCCCCCCCCCCCCCCCCCCCCCCCCC
/* CCCCCCCCCCCCCCCCCCCCCCCCCCCCCCCCCCCCCCCCCCCCCCCCCCCCCCCCC
*  2007  3  1 23 45   .00000000                                                 
P  1 -21880.673565 -14642.771763  -3535.194133    110.986667                    
V  1  -2530.600040  -4396.251297  31934.550224       .025219                    
P  2  14176.126432   8975.873853 -20874.877304     86.697512                    
V  2  -3428.497870  25755.282487   8584.771272       .032823                    
P  3 -24275.203199  -9760.201425   5294.468198     21.469936                    
V  3  -4176.805774  -6581.159409 -29791.039584       .057739                    
P  4   7329.274030  21372.242408 -13733.783926      6.204556                    
V  4  -4890.318744  17037.188251  24376.555185       .016326                    
P  5  21555.010860 -14958.424796  -3808.548715     41.313378                    
V  5   5726.784095    902.510993  30878.094205       .028398                    
P  6   7097.972897 -14107.224858 -21163.743323     61.286415                    
V  6  22878.344293  15126.190762  -2438.566550       .240825                    
P  7   2596.197308 -16273.726140 -20477.885668    399.020719                    
V  7  23174.905923  13668.107738  -7874.845950      -.130738                    
P  8   -470.452209  25793.443034   5144.077253    -98.445660                    
V  8  -3630.841214   6268.796929 -31484.218089      -.013755                    
P  9  13979.302411 -11154.019285  18977.493268     59.759144                    
V  9   -252.151347  25461.908290  14931.801279       .016212                    
P 10  22943.703361    720.598830 -13745.755108     98.188835                    
V 10 -15183.059181   8109.473388 -24798.478776       .005399                    
P 11 -13737.702356  13586.897544  18009.370470      8.851119                    
V 11  -3852.136568 -23273.307227  14825.713486       .012885                    
P 12  23529.965585 -12061.917204  -2124.322314    -47.096261                    
V 12   3736.297611   1438.120847  31650.866362       .022915                    
P 13  -3536.835717  15119.423866 -21649.424471    148.766593                    
V 13 -21629.176191 -16448.057243  -7941.042932       .039089                    
P 14 -13654.356541 -19816.308324  11399.571587     10.062636                    
V 14  12337.699141   7369.724868  27727.850637       .014413                    
P 16 -18893.675829  -5431.455193 -17837.861516    126.982441                    
V 16  20353.308628 -10303.345525 -18201.486460       .035254                    
P 17  12934.225008  19962.616108  11942.664228     76.925415                    
V 17 -13520.121862  -7147.779487  26473.974194      -.013970                    
P 18   8733.650306 -17259.659385  18190.928174   -253.388335                    
V 18  22041.036508  -6707.396536 -17389.239333       .002931                    
P 19 -21452.462178  -3840.032564  15347.764892     10.198476                    
V 19 -13543.179254 -13869.585944 -22441.781704       .040109                    
P 20 -22554.414542  13407.806184  -4054.297692    -22.622105                    
V 20  -5833.920260   -659.982535  31073.881064      -.002086                    
P 21   5035.665044 -25689.238288  -1858.720660     72.497652                    
V 21   3574.506069   3061.687243 -31528.260677       .008789                    
P 22  -3981.420176 -15016.222123  21696.805298    170.039550                    
V 22  25485.038925  -9555.577845  -1970.137953       .020298                    
P 23 -14282.377806   7539.000991 -21200.850217    152.316845                    
V 23 -21188.657263 -16200.937155   8357.475054       .018253                    
P 24  12780.454557 -18923.116833 -13610.404037     81.602732                    
V 24   -661.424638  17637.340169 -24476.460060       .030517                    
P 25 -14880.714518  -4075.623587 -21229.177009    321.521643                    
V 25    922.852245 -27876.578967   4775.106994      -.197640                    
P 26  22089.010476   6120.659432  13482.766444    -67.804713                    
V 26  13094.078659  11753.061238 -25424.003625      -.189504                    
P 27  -3875.736379  25749.473593  -3825.207234     96.904567                    
V 27  -2758.619445  -5826.144362 -31460.392545       .021102                    
P 28      8.089525  16130.221410  21366.553336      6.297017                    
V 28 -24723.506506   9412.611088  -7552.853128      -.008300                    
P 29  23230.838331   8423.369461  10425.457922    360.292033                    
V 29   9500.821997   8626.400575 -28403.718609       .072071                    
P 30  15697.067472 -17583.652476 -12432.769662     26.825963                    
V 30  15016.331807  -4300.364506  25782.315857       .011180                    
P 31  -8520.565232 -19943.922601 -15089.267953     12.521783                    
V 31   4140.435999 -19219.465469  22818.768808       .028754                    
EOF
